VIGORIDE-3              
1 52760U 22057AE  26068.92149362  .00008532  00000+0  33326-3 0  9991
2 52760  97.6431 206.4459 0009778 111.2279 249.0004 15.26101220210019
STARLINK-31164          
1 58733U 24005F   26068.46504083  .00004947  00000+0  19397-3 0  9994
2 58733  43.0011 220.6476 0001690 274.9327  85.1331 15.26744385120407
